[{"OBJECT_NAME":"SL-8 R/B","OBJECT_ID":"1991-006B","EPOCH":"2026-04-24T12:58:35.844096","MEAN_MOTION":13.7750389,"ECCENTRICITY":0.0020945,"INCLINATION":82.94,"RA_OF_ASC_NODE":135.9477,"ARG_OF_PERICENTER":266.4778,"MEAN_ANOMALY":204.9575,"EPHEMERIS_TYPE":0,"CLASSIFICATION_TYPE":"U","NORAD_CAT_ID":21088,"ELEMENT_SET_NO":999,"REV_AT_EPOCH":77038,"BSTAR":0.00013882,"MEAN_MOTION_DOT":1.53e-6,"MEAN_MOTION_DDOT":0},{"OBJECT_NAME":"OKEAN-3","OBJECT_ID":"1991-039A","EPOCH":"2026-04-24T13:21:57.164832","MEAN_MOTION":15.05043413,"ECCENTRICITY":0.0014312,"INCLINATION":82.5133,"RA_OF_ASC_NODE":292.3841,"ARG_OF_PERICENTER":167.7179,"MEAN_ANOMALY":192.44,"EPHEMERIS_TYPE":0,"CLASSIFICATION_TYPE":"U","NORAD_CAT_ID":21397,"ELEMENT_SET_NO":999,"REV_AT_EPOCH":87193,"BSTAR":0.00016515,"MEAN_MOTION_DOT":2.378e-5,"MEAN_MOTION_DDOT":0},{"OBJECT_NAME":"COSMOS 2151","OBJECT_ID":"1991-042A","EPOCH":"2026-04-24T20:08:28.686624","MEAN_MOTION":15.0028963,"ECCENTRICITY":0.0010614,"INCLINATION":82.4986,"RA_OF_ASC_NODE":39.1524,"ARG_OF_PERICENTER":263.5088,"MEAN_ANOMALY":96.4927,"EPHEMERIS_TYPE":0,"CLASSIFICATION_TYPE":"U","NORAD_CAT_ID":21422,"ELEMENT_SET_NO":999,"REV_AT_EPOCH":87011,"BSTAR":9.6741e-5,"MEAN_MOTION_DOT":1.239e-5,"MEAN_MOTION_DDOT":0},{"OBJECT_NAME":"SL-14 R/B","OBJECT_ID":"1991-042B","EPOCH":"2026-04-24T16:11:26.386080","MEAN_MOTION":14.81869186,"ECCENTRICITY":0.0018596,"INCLINATION":82.4947,"RA_OF_ASC_NODE":177.0758,"ARG_OF_PERICENTER":90.4069,"MEAN_ANOMALY":269.9276,"EPHEMERIS_TYPE":0,"CLASSIFICATION_TYPE":"U","NORAD_CAT_ID":21423,"ELEMENT_SET_NO":999,"REV_AT_EPOCH":85988,"BSTAR":2.6911e-5,"MEAN_MOTION_DOT":2.37e-6,"MEAN_MOTION_DDOT":0},{"OBJECT_NAME":"ERS-1","OBJECT_ID":"1991-050A","EPOCH":"2026-04-24T15:26:38.533920","MEAN_MOTION":14.39482062,"ECCENTRICITY":0.0033014,"INCLINATION":98.7837,"RA_OF_ASC_NODE":134.0261,"ARG_OF_PERICENTER":67.0213,"MEAN_ANOMALY":293.4451,"EPHEMERIS_TYPE":0,"CLASSIFICATION_TYPE":"U","NORAD_CAT_ID":21574,"ELEMENT_SET_NO":999,"REV_AT_EPOCH":82234,"BSTAR":8.3035e-5,"MEAN_MOTION_DOT":2.14e-6,"MEAN_MOTION_DDOT":0},{"OBJECT_NAME":"ARIANE 40 R/B","OBJECT_ID":"1991-050F","EPOCH":"2026-04-24T15:42:34.087680","MEAN_MOTION":14.4292409,"ECCENTRICITY":0.000187,"INCLINATION":98.1924,"RA_OF_ASC_NODE":165.1448,"ARG_OF_PERICENTER":307.8056,"MEAN_ANOMALY":52.2965,"EPHEMERIS_TYPE":0,"CLASSIFICATION_TYPE":"U","NORAD_CAT_ID":21610,"ELEMENT_SET_NO":999,"REV_AT_EPOCH":82562,"BSTAR":6.5901e-5,"MEAN_MOTION_DOT":1.79e-6,"MEAN_MOTION_DDOT":0},{"OBJECT_NAME":"INTERCOSMOS 25","OBJECT_ID":"1991-086A","EPOCH":"2026-04-24T21:06:49.835808","MEAN_MOTION":12.12127809,"ECCENTRICITY":0.1485718,"INCLINATION":82.5992,"RA_OF_ASC_NODE":282.0708,"ARG_OF_PERICENTER":17.3849,"MEAN_ANOMALY":347.2906,"EPHEMERIS_TYPE":0,"CLASSIFICATION_TYPE":"U","NORAD_CAT_ID":21819,"ELEMENT_SET_NO":999,"REV_AT_EPOCH":50228,"BSTAR":9.4637e-5,"MEAN_MOTION_DOT":5.03e-6,"MEAN_MOTION_DDOT":0},{"OBJECT_NAME":"SL-8 R/B","OBJECT_ID":"1992-008B","EPOCH":"2026-04-24T20:03:48.063744","MEAN_MOTION":13.75970555,"ECCENTRICITY":0.0034651,"INCLINATION":82.9277,"RA_OF_ASC_NODE":233.4495,"ARG_OF_PERICENTER":8.0829,"MEAN_ANOMALY":110.3645,"EPHEMERIS_TYPE":0,"CLASSIFICATION_TYPE":"U","NORAD_CAT_ID":21876,"ELEMENT_SET_NO":999,"REV_AT_EPOCH":71576,"BSTAR":3.7467e-5,"MEAN_MOTION_DOT":5.2e-7,"MEAN_MOTION_DDOT":0},{"OBJECT_NAME":"SL-8 R/B","OBJECT_ID":"1992-020B","EPOCH":"2026-04-24T12:41:26.287008","MEAN_MOTION":13.75548627,"ECCENTRICITY":0.0029307,"INCLINATION":82.9269,"RA_OF_ASC_NODE":119.7164,"ARG_OF_PERICENTER":167.0727,"MEAN_ANOMALY":307.7914,"EPHEMERIS_TYPE":0,"CLASSIFICATION_TYPE":"U","NORAD_CAT_ID":21938,"ELEMENT_SET_NO":999,"REV_AT_EPOCH":70743,"BSTAR":-5.6954e-5,"MEAN_MOTION_DOT":-4.0e-7,"MEAN_MOTION_DDOT":0},{"OBJECT_NAME":"USA 81","OBJECT_ID":"1992-023A","EPOCH":"2026-04-24T11:38:44.007648","MEAN_MOTION":14.32381913,"ECCENTRICITY":0.0001298,"INCLINATION":85.0035,"RA_OF_ASC_NODE":105.0038,"ARG_OF_PERICENTER":101.5961,"MEAN_ANOMALY":258.5377,"EPHEMERIS_TYPE":0,"CLASSIFICATION_TYPE":"U","NORAD_CAT_ID":21949,"ELEMENT_SET_NO":999,"REV_AT_EPOCH":10134,"BSTAR":4.6975e-5,"MEAN_MOTION_DOT":1.47e-6,"MEAN_MOTION_DDOT":0},{"OBJECT_NAME":"COSMOS 2219","OBJECT_ID":"1992-076A","EPOCH":"2026-04-24T20:30:25.560000","MEAN_MOTION":14.14095032,"ECCENTRICITY":0.0016886,"INCLINATION":71.0594,"RA_OF_ASC_NODE":281.5617,"ARG_OF_PERICENTER":134.0362,"MEAN_ANOMALY":226.2155,"EPHEMERIS_TYPE":0,"CLASSIFICATION_TYPE":"U","NORAD_CAT_ID":22219,"ELEMENT_SET_NO":999,"REV_AT_EPOCH":72490,"BSTAR":0.00022185,"MEAN_MOTION_DOT":3.76e-6,"MEAN_MOTION_DDOT":0},{"OBJECT_NAME":"SL-16 R/B","OBJECT_ID":"1992-076B","EPOCH":"2026-04-24T16:17:22.467264","MEAN_MOTION":14.16865702,"ECCENTRICITY":0.0012001,"INCLINATION":70.9982,"RA_OF_ASC_NODE":91.4977,"ARG_OF_PERICENTER":14.5942,"MEAN_ANOMALY":157.9979,"EPHEMERIS_TYPE":0,"CLASSIFICATION_TYPE":"U","NORAD_CAT_ID":22220,"ELEMENT_SET_NO":999,"REV_AT_EPOCH":72834,"BSTAR":-8.7213e-5,"MEAN_MOTION_DOT":-2.23e-6,"MEAN_MOTION_DDOT":0},{"OBJECT_NAME":"COSMOS 2221","OBJECT_ID":"1992-080A","EPOCH":"2026-04-24T20:19:26.498208","MEAN_MOTION":14.96384869,"ECCENTRICITY":0.0015067,"INCLINATION":82.5045,"RA_OF_ASC_NODE":234.8568,"ARG_OF_PERICENTER":42.4853,"MEAN_ANOMALY":317.7532,"EPHEMERIS_TYPE":0,"CLASSIFICATION_TYPE":"U","NORAD_CAT_ID":22236,"ELEMENT_SET_NO":999,"REV_AT_EPOCH":78769,"BSTAR":0.00012833,"MEAN_MOTION_DOT":1.482e-5,"MEAN_MOTION_DDOT":0},{"OBJECT_NAME":"SL-16 R/B","OBJECT_ID":"1992-093B","EPOCH":"2026-04-24T19:35:27.710016","MEAN_MOTION":14.15456823,"ECCENTRICITY":0.0006171,"INCLINATION":71.0208,"RA_OF_ASC_NODE":267.4307,"ARG_OF_PERICENTER":246.7172,"MEAN_ANOMALY":113.3302,"EPHEMERIS_TYPE":0,"CLASSIFICATION_TYPE":"U","NORAD_CAT_ID":22285,"ELEMENT_SET_NO":999,"REV_AT_EPOCH":71968,"BSTAR":0.00019692,"MEAN_MOTION_DOT":3.37e-6,"MEAN_MOTION_DDOT":0},{"OBJECT_NAME":"COSMOS 2228","OBJECT_ID":"1992-094A","EPOCH":"2026-04-24T18:22:00.962688","MEAN_MOTION":14.97405301,"ECCENTRICITY":0.0018981,"INCLINATION":82.5203,"RA_OF_ASC_NODE":193.2007,"ARG_OF_PERICENTER":143.4982,"MEAN_ANOMALY":216.7539,"EPHEMERIS_TYPE":0,"CLASSIFICATION_TYPE":"U","NORAD_CAT_ID":22286,"ELEMENT_SET_NO":999,"REV_AT_EPOCH":78295,"BSTAR":0.00012265,"MEAN_MOTION_DOT":1.457e-5,"MEAN_MOTION_DDOT":0},{"OBJECT_NAME":"SL-16 R/B","OBJECT_ID":"1993-016B","EPOCH":"2026-04-24T10:29:41.517312","MEAN_MOTION":14.15310229,"ECCENTRICITY":0.0012607,"INCLINATION":71.0038,"RA_OF_ASC_NODE":119.1003,"ARG_OF_PERICENTER":256.4866,"MEAN_ANOMALY":103.4852,"EPHEMERIS_TYPE":0,"CLASSIFICATION_TYPE":"U","NORAD_CAT_ID":22566,"ELEMENT_SET_NO":999,"REV_AT_EPOCH":70864,"BSTAR":-0.00011523,"MEAN_MOTION_DOT":-2.72e-6,"MEAN_MOTION_DDOT":0},{"OBJECT_NAME":"COSMOS 2242","OBJECT_ID":"1993-024A","EPOCH":"2026-04-24T18:25:30.840384","MEAN_MOTION":14.96738972,"ECCENTRICITY":0.0017209,"INCLINATION":82.5206,"RA_OF_ASC_NODE":222.6367,"ARG_OF_PERICENTER":146.6167,"MEAN_ANOMALY":213.6144,"EPHEMERIS_TYPE":0,"CLASSIFICATION_TYPE":"U","NORAD_CAT_ID":22626,"ELEMENT_SET_NO":999,"REV_AT_EPOCH":78728,"BSTAR":0.00012596,"MEAN_MOTION_DOT":1.47e-5,"MEAN_MOTION_DDOT":0}]
