SL-8 R/B                
1 21088U 91006B   26114.54069264  .00000153  00000+0  13882-3 0  9998
2 21088  82.9400 135.9477 0020945 266.4778 204.9575 13.77503890770380
OKEAN-3                 
1 21397U 91039A   26114.55691163  .00002378  00000+0  16515-3 0  9994
2 21397  82.5133 292.3841 0014312 167.7179 192.4400 15.05043413871938
COSMOS 2151             
1 21422U 91042A   26114.83922091  .00001239  00000+0  96741-4 0  9990
2 21422  82.4986  39.1524 0010614 263.5088  96.4927 15.00289630870116
SL-14 R/B               
1 21423U 91042B   26114.67461095  .00000237  00000+0  26911-4 0  9994
2 21423  82.4947 177.0758 0018596  90.4069 269.9276 14.81869186859881
ERS-1                   
1 21574U 91050A   26114.64350155  .00000214  00000+0  83035-4 0  9996
2 21574  98.7837 134.0261 0033014  67.0213 293.4451 14.39482062822346
ARIANE 40 R/B           
1 21610U 91050F   26114.65456120  .00000179  00000+0  65901-4 0  9999
2 21610  98.1924 165.1448 0001870 307.8056  52.2965 14.42924090825626
INTERCOSMOS 25          
1 21819U 91086A   26114.87974347  .00000503  00000+0  94637-4 0  9998
2 21819  82.5992 282.0708 1485718  17.3849 347.2906 12.12127809502282
SL-8 R/B                
1 21876U 92008B   26114.83597296  .00000052  00000+0  37467-4 0  9993
2 21876  82.9277 233.4495 0034651   8.0829 110.3645 13.75970555715760
SL-8 R/B                
1 21938U 92020B   26114.52877647 -.00000040  00000+0 -56954-4 0  9994
2 21938  82.9269 119.7164 0029307 167.0727 307.7914 13.75548627707431
USA 81                  
1 21949U 92023A   26114.48523157  .00000147  00000+0  46975-4 0  9996
2 21949  85.0035 105.0038 0001298 101.5961 258.5377 14.32381913101349
COSMOS 2219             
1 22219U 92076A   26114.85446250  .00000376  00000+0  22185-3 0  9994
2 22219  71.0594 281.5617 0016886 134.0362 226.2155 14.14095032724906
SL-16 R/B               
1 22220U 92076B   26114.67873226 -.00000223  00000+0 -87213-4 0  9990
2 22220  70.9982  91.4977 0012001  14.5942 157.9979 14.16865702728342
COSMOS 2221             
1 22236U 92080A   26114.84683447  .00001482  00000+0  12833-3 0  9996
2 22236  82.5045 234.8568 0015067  42.4853 317.7532 14.96384869787695
SL-16 R/B               
1 22285U 92093B   26114.81629294  .00000337  00000+0  19692-3 0  9999
2 22285  71.0208 267.4307 0006171 246.7172 113.3302 14.15456823719685
COSMOS 2228             
1 22286U 92094A   26114.76528892  .00001457  00000+0  12265-3 0  9990
2 22286  82.5203 193.2007 0018981 143.4982 216.7539 14.97405301782950
SL-16 R/B               
1 22566U 93016B   26114.43728608 -.00000272  00000+0 -11523-3 0  9999
2 22566  71.0038 119.1003 0012607 256.4866 103.4852 14.15310229708646
COSMOS 2242             
1 22626U 93024A   26114.76771806  .00001470  00000+0  12596-3 0  9999
2 22626  82.5206 222.6367 0017209 146.6167 213.6144 14.96738972787280
